start=new Date('2023-06-25T00:00:00.000Z').valueOf();
sats=[{"TIME_SYSTEM":"UTC","DECAY_DATE":null,"BSTAR":"0.00017466000000","INCLINATION":"53.0529","ECCENTRICITY":"0.00012980","MEAN_MOTION_DDOT":"0.0000000000000","TLE_LINE1":"1 48681U 21044AV  23175.09341630  .00002321  00000-0  17466-3 0  9997","REF_FRAME":"TEME","MEAN_MOTION":"15.06397079","TLE_LINE2":"2 48681  53.0529 204.3317 0001298  67.0287 293.0839 15.06397079116002","RA_OF_ASC_NODE":"204.3317","MEAN_MOTION_DOT":"0.00002321","CLASSIFICATION_TYPE":"U","RCS_SIZE":"LARGE","ARG_OF_PERICENTER":"67.0287","OBJECT_TYPE":"PAYLOAD","FILE":"3941209","MEAN_ELEMENT_THEORY":"SGP4","EPOCH":"2023-06-24T02:14:31.168320","PERIAPSIS":"546.324","GP_ID":"234515450","EPHEMERIS_TYPE":"0","NORAD_CAT_ID":"48681","CENTER_NAME":"EARTH","SITE":"AFETR","MEAN_ANOMALY":"293.0839","REV_AT_EPOCH":"11600","LAUNCH_DATE":"2021-05-26","OBJECT_ID":"2021-044AV","SEMIMAJOR_AXIS":"6925.358","OBJECT_NAME":"STARLINK-2725","PERIOD":"95.592","ELEMENT_SET_NO":"999","COUNTRY_CODE":"US","APOAPSIS":"548.121"},{"REV_AT_EPOCH":"11612","LAUNCH_DATE":"2021-05-26","OBJECT_ID":"2021-044AW","MEAN_ANOMALY":"268.5210","EPHEMERIS_TYPE":"0","CENTER_NAME":"EARTH","NORAD_CAT_ID":"48682","SITE":"AFETR","GP_ID":"234521955","COUNTRY_CODE":"US","APOAPSIS":"547.970","PERIOD":"95.593","ELEMENT_SET_NO":"999","OBJECT_NAME":"STARLINK-2743","SEMIMAJOR_AXIS":"6925.376","REF_FRAME":"TEME","ECCENTRICITY":"0.00010530","TLE_LINE1":"1 48682U 21044AW  23175.35602804  .00000517  00000-0  53584-4 0  9997","MEAN_MOTION_DDOT":"0.0000000000000","TIME_SYSTEM":"UTC","DECAY_DATE":null,"INCLINATION":"53.0521","BSTAR":"0.00005358400000","OBJECT_TYPE":"PAYLOAD","FILE":"3941523","MEAN_ELEMENT_THEORY":"SGP4","EPOCH":"2023-06-24T08:32:40.822656","PERIAPSIS":"546.512","RCS_SIZE":"LARGE","ARG_OF_PERICENTER":"91.5900","MEAN_MOTION_DOT":"0.00000517","CLASSIFICATION_TYPE":"U","MEAN_MOTION":"15.06391126","RA_OF_ASC_NODE":"193.0712","TLE_LINE2":"2 48682  53.0521 193.0712 0001053  91.5900 268.5210 15.06391126116121"},{"EPHEMERIS_TYPE":"0","NORAD_CAT_ID":"48683","CENTER_NAME":"EARTH","SITE":"AFETR","GP_ID":"234514559","LAUNCH_DATE":"2021-05-26","REV_AT_EPOCH":"11608","OBJECT_ID":"2021-044AX","MEAN_ANOMALY":"270.9680","OBJECT_NAME":"STARLINK-2756","SEMIMAJOR_AXIS":"6925.360","COUNTRY_CODE":"US","APOAPSIS":"547.995","PERIOD":"95.592","ELEMENT_SET_NO":"999","ECCENTRICITY":"0.00011120","MEAN_MOTION_DDOT":"0.0000000000000","TLE_LINE1":"1 48683U 21044AX  23175.04638721  .00001346  00000-0  10923-3 0  9991","TIME_SYSTEM":"UTC","DECAY_DATE":null,"INCLINATION":"53.0529","BSTAR":"0.00010923000000","REF_FRAME":"TEME","MEAN_MOTION_DOT":"0.00001346","CLASSIFICATION_TYPE":"U","MEAN_MOTION":"15.06396254","RA_OF_ASC_NODE":"194.3089","TLE_LINE2":"2 48683  53.0529 194.3089 0001112  89.1436 270.9680 15.06396254116084","OBJECT_TYPE":"PAYLOAD","MEAN_ELEMENT_THEORY":"SGP4","FILE":"3941181","PERIAPSIS":"546.455","EPOCH":"2023-06-24T01:06:47.854944","RCS_SIZE":"LARGE","ARG_OF_PERICENTER":"89.1436"},{"RCS_SIZE":"LARGE","ARG_OF_PERICENTER":"90.8592","OBJECT_TYPE":"PAYLOAD","EPOCH":"2023-06-24T08:01:32.490912","PERIAPSIS":"546.346","FILE":"3941525","MEAN_ELEMENT_THEORY":"SGP4","MEAN_MOTION":"15.06380250","RA_OF_ASC_NODE":"208.3622","TLE_LINE2":"2 48684  53.0526 208.3622 0001340  90.8592 269.2551 15.06380250115970","MEAN_MOTION_DOT":"-0.00002646","CLASSIFICATION_TYPE":"U","REF_FRAME":"TEME","DECAY_DATE":null,"TIME_SYSTEM":"UTC","BSTAR":"-0.00015887000000","INCLINATION":"53.0526","ECCENTRICITY":"0.00013400","TLE_LINE1":"1 48684U 21044AY  23175.33440383 -.00002646  00000-0 -15887-3 0  9999","MEAN_MOTION_DDOT":"0.0000000000000","ELEMENT_SET_NO":"999","PERIOD":"95.593","COUNTRY_CODE":"US","APOAPSIS":"548.202","SEMIMAJOR_AXIS":"6925.409","OBJECT_NAME":"STARLINK-2741","MEAN_ANOMALY":"269.2551","REV_AT_EPOCH":"11597","LAUNCH_DATE":"2021-05-26","OBJECT_ID":"2021-044AY","GP_ID":"234522484","EPHEMERIS_TYPE":"0","SITE":"AFETR","CENTER_NAME":"EARTH","NORAD_CAT_ID":"48684"},{"REF_FRAME":"TEME","ECCENTRICITY":"0.00011130","MEAN_MOTION_DDOT":"0.0000000000000","TLE_LINE1":"1 48685U 21044AZ  23175.34864278  .00000481  00000-0  51183-4 0  9997","DECAY_DATE":null,"TIME_SYSTEM":"UTC","INCLINATION":"53.0546","BSTAR":"0.00005118300000","OBJECT_TYPE":"PAYLOAD","PERIAPSIS":"546.459","EPOCH":"2023-06-24T08:22:02.736192","MEAN_ELEMENT_THEORY":"SGP4","FILE":"3941637","RCS_SIZE":"LARGE","ARG_OF_PERICENTER":"89.1886","MEAN_MOTION_DOT":"0.00000481","CLASSIFICATION_TYPE":"U","MEAN_MOTION":"15.06394690","RA_OF_ASC_NODE":"192.9923","TLE_LINE2":"2 48685  53.0546 192.9923 0001113  89.1886 270.9230 15.06394690116135","LAUNCH_DATE":"2021-05-26","REV_AT_EPOCH":"11613","OBJECT_ID":"2021-044AZ","MEAN_ANOMALY":"270.9230","EPHEMERIS_TYPE":"0","SITE":"AFETR","CENTER_NAME":"EARTH","NORAD_CAT_ID":"48685","GP_ID":"234525050","COUNTRY_CODE":"US","APOAPSIS":"548.001","ELEMENT_SET_NO":"999","PERIOD":"95.592","OBJECT_NAME":"STARLINK-2751","SEMIMAJOR_AXIS":"6925.365"},{"REF_FRAME":"TEME","MEAN_MOTION_DDOT":"0.0000000000000","TLE_LINE1":"1 48686U 21044BA  23175.34267845  .00001163  00000-0  96931-4 0  9993","ECCENTRICITY":"0.00011070","BSTAR":"0.00009693100000","INCLINATION":"53.0523","DECAY_DATE":null,"TIME_SYSTEM":"UTC","PERIAPSIS":"546.461","EPOCH":"2023-06-24T08:13:27.418080","FILE":"3941447","MEAN_ELEMENT_THEORY":"SGP4","OBJECT_TYPE":"PAYLOAD","ARG_OF_PERICENTER":"90.6659","RCS_SIZE":"LARGE","CLASSIFICATION_TYPE":"U","MEAN_MOTION_DOT":"0.00001163","RA_OF_ASC_NODE":"198.2459","TLE_LINE2":"2 48686  53.0523 198.2459 0001107  90.6659 269.4457 15.06395312116116","MEAN_MOTION":"15.06395312","OBJECT_ID":"2021-044BA","REV_AT_EPOCH":"11611","LAUNCH_DATE":"2021-05-26","MEAN_ANOMALY":"269.4457","SITE":"AFETR","CENTER_NAME":"EARTH","NORAD_CAT_ID":"48686","EPHEMERIS_TYPE":"0","GP_ID":"234520743","APOAPSIS":"547.995","COUNTRY_CODE":"US","ELEMENT_SET_NO":"999","PERIOD":"95.592","OBJECT_NAME":"STARLINK-2629","SEMIMAJOR_AXIS":"6925.363"},{"GP_ID":"234514581","EPHEMERIS_TYPE":"0","SITE":"AFETR","NORAD_CAT_ID":"48687","CENTER_NAME":"EARTH","MEAN_ANOMALY":"270.2152","REV_AT_EPOCH":"11615","LAUNCH_DATE":"2021-05-26","OBJECT_ID":"2021-044BB","SEMIMAJOR_AXIS":"6925.363","OBJECT_NAME":"STARLINK-2627","PERIOD":"95.592","ELEMENT_SET_NO":"999","COUNTRY_CODE":"US","APOAPSIS":"548.047","DECAY_DATE":null,"TIME_SYSTEM":"UTC","BSTAR":"0.00012038000000","INCLINATION":"53.0530","ECCENTRICITY":"0.00011820","MEAN_MOTION_DDOT":"0.0000000000000","TLE_LINE1":"1 48687U 21044BB  23175.05237703  .00001512  00000-0  12038-3 0  9995","REF_FRAME":"TEME","MEAN_MOTION":"15.06395160","RA_OF_ASC_NODE":"189.2742","TLE_LINE2":"2 48687  53.0530 189.2742 0001182  89.8972 270.2152 15.06395160116158","MEAN_MOTION_DOT":"0.00001512","CLASSIFICATION_TYPE":"U","RCS_SIZE":"LARGE","ARG_OF_PERICENTER":"89.8972","OBJECT_TYPE":"PAYLOAD","EPOCH":"2023-06-24T01:15:25.375392","PERIAPSIS":"546.410","MEAN_ELEMENT_THEORY":"SGP4","FILE":"3941182"},{"TLE_LINE1":"1 48688U 21044BC  23175.05606341  .00001341  00000-0  10888-3 0  9995","MEAN_MOTION_DDOT":"0.0000000000000","ECCENTRICITY":"0.00009490","INCLINATION":"53.0538","BSTAR":"0.00010888000000","DECAY_DATE":null,"TIME_SYSTEM":"UTC","REF_FRAME":"TEME","CLASSIFICATION_TYPE":"U","MEAN_MOTION_DOT":"0.00001341","RA_OF_ASC_NODE":"189.2519","TLE_LINE2":"2 48688  53.0538 189.2519 0000949  81.3102 278.7994 15.06393527116153","MEAN_MOTION":"15.06393527","PERIAPSIS":"546.576","EPOCH":"2023-06-24T01:20:43.878624","MEAN_ELEMENT_THEORY":"SGP4","FILE":"3941182","OBJECT_TYPE":"PAYLOAD","ARG_OF_PERICENTER":"81.3102","RCS_SIZE":"LARGE","SITE":"AFETR","NORAD_CAT_ID":"48688","CENTER_NAME":"EARTH","EPHEMERIS_TYPE":"0","GP_ID":"234514576","OBJECT_ID":"2021-044BC","LAUNCH_DATE":"2021-05-26","REV_AT_EPOCH":"11615","MEAN_ANOMALY":"278.7994","OBJECT_NAME":"STARLINK-2742","SEMIMAJOR_AXIS":"6925.368","APOAPSIS":"547.891","COUNTRY_CODE":"US","ELEMENT_SET_NO":"999","PERIOD":"95.593"},{"MEAN_MOTION_DOT":"0.00001655","CLASSIFICATION_TYPE":"U","MEAN_MOTION":"15.06397981","RA_OF_ASC_NODE":"194.2007","TLE_LINE2":"2 48689  53.0524 194.2007 0001336  95.3156 264.7985 15.06397981116087","OBJECT_TYPE":"PAYLOAD","PERIAPSIS":"546.295","EPOCH":"2023-06-24T01:28:01.234560","FILE":"3941226","MEAN_ELEMENT_THEORY":"SGP4","RCS_SIZE":"LARGE","ARG_OF_PERICENTER":"95.3156","ECCENTRICITY":"0.00013360","MEAN_MOTION_DDOT":"0.0000000000000","TLE_LINE1":"1 48689U 21044BD  23175.06112540  .00001655  00000-0  12995-3 0  9999","DECAY_DATE":null,"TIME_SYSTEM":"UTC","INCLINATION":"53.0524","BSTAR":"0.00012995000000","REF_FRAME":"TEME","OBJECT_NAME":"STARLINK-2617","SEMIMAJOR_AXIS":"6925.355","COUNTRY_CODE":"US","APOAPSIS":"548.145","PERIOD":"95.592","ELEMENT_SET_NO":"999","EPHEMERIS_TYPE":"0","SITE":"AFETR","NORAD_CAT_ID":"48689","CENTER_NAME":"EARTH","GP_ID":"234515644","REV_AT_EPOCH":"11608","LAUNCH_DATE":"2021-05-26","OBJECT_ID":"2021-044BD","MEAN_ANOMALY":"264.7985"},{"CLASSIFICATION_TYPE":"U","MEAN_MOTION_DOT":"0.00000985","RA_OF_ASC_NODE":"204.2048","TLE_LINE2":"2 48690  53.0525 204.2048 0001208  87.2347 272.8781 15.06392128116001","MEAN_MOTION":"15.06392128","PERIAPSIS":"546.401","EPOCH":"2023-06-24T01:37:19.036416","FILE":"3941186","MEAN_ELEMENT_THEORY":"SGP4","OBJECT_TYPE":"PAYLOAD","ARG_OF_PERICENTER":"87.2347","RCS_SIZE":"LARGE","TLE_LINE1":"1 48690U 21044BE  23175.06758144  .00000985  00000-0  85034-4 0  9997","MEAN_MOTION_DDOT":"0.0000000000000","ECCENTRICITY":"0.00012080","BSTAR":"0.00008503400000","INCLINATION":"53.0525","DECAY_DATE":null,"TIME_SYSTEM":"UTC","REF_FRAME":"TEME","OBJECT_NAME":"STARLINK-2740","SEMIMAJOR_AXIS":"6925.373","APOAPSIS":"548.074","COUNTRY_CODE":"US","PERIOD":"95.593","ELEMENT_SET_NO":"999","SITE":"AFETR","CENTER_NAME":"EARTH","NORAD_CAT_ID":"48690","EPHEMERIS_TYPE":"0","GP_ID":"234514652","OBJECT_ID":"2021-044BE","LAUNCH_DATE":"2021-05-26","REV_AT_EPOCH":"11600","MEAN_ANOMALY":"272.8781"}];
